ONEWEB-0158             
1 48054U 21025N   26157.69199923 -.00000025  00000+0 -10438-3 0  9997
2 48054  87.8951 322.3070 0001590  89.5209 270.6103 13.13471783252259
ONEWEB-0157             
1 48055U 21025P   26157.71737849 -.00000216  00000+0 -62586-3 0  9999
2 48055  87.8950 322.3077 0001850 107.1319 253.0013 13.13469372252193
ONEWEB-0162             
1 48056U 21025Q   26157.69354050  .00000122  00000+0  29994-3 0  9996
2 48056  87.8949 322.3134 0001967  94.2415 265.8939 13.13469169252167
ONEWEB-0155             
1 48057U 21025R   26157.70044379 -.00000047  00000+0 -16325-3 0  9991
2 48057  87.8951 322.3080 0001678  99.1800 260.9519 13.13469083252303
ONEWEB-0149             
1 48058U 21025S   26157.72245673 -.00000271  00000+0 -77780-3 0  9995
2 48058  87.8957 322.3073 0002065  94.1905 265.9460 13.13470171252113
ONEWEB-0148             
1 48059U 21025T   26157.68521527  .00000304  00000+0  79798-3 0  9992
2 48059  87.8948 322.3221 0002341  97.5861 262.5534 13.13469326252232
ONEWEB-0160             
1 48060U 21025U   26157.70214032 -.00000113  00000+0 -34360-3 0  9993
2 48060  87.8948 322.3146 0001738  69.9832 290.1484 13.13470192252188
ONEWEB-0163             
1 48061U 21025V   26157.68690497  .00000269  00000+0  70144-3 0  9994
2 48061  87.8955 322.3115 0001808 103.7964 256.3366 13.13470500252304
ONEWEB-0159             
1 48062U 21025W   26157.75462144  .00000392  00000+0  10395-2 0  9997
2 48062  87.8955 322.2916 0001760 102.4140 257.7187 13.13470301252239
ONEWEB-0164             
1 48063U 21025X   26157.73599366  .00000168  00000+0  42509-3 0  9997
2 48063  87.8953 322.3016 0001783  92.3938 267.7396 13.13470650252215
ONEWEB-0167             
1 48064U 21025Y   26157.68774218  .00000230  00000+0  59561-3 0  9999
2 48064  87.8945 322.3219 0001323 113.6042 246.5226 13.13470952252194
ONEWEB-0166             
1 48065U 21025Z   26157.71059523 -.00000283  00000+0 -80912-3 0  9993
2 48065  87.8956 322.2878 0001975  96.9944 263.1410 13.13471177252273
ONEWEB-0151             
1 48066U 21025AA  26157.71228764 -.00000244  00000+0 -70323-3 0  9991
2 48066  87.8946 322.3049 0001685  96.0575 264.0746 13.13469669252212
ONEWEB-0170             
1 48067U 21025AB  26157.72075555 -.00000287  00000+0 -82135-3 0  9992
2 48067  87.8946 322.3051 0001423  85.6596 274.4696 13.13469120252179
ONEWEB-0168             
1 48068U 21025AC  26157.70551943 -.00000164  00000+0 -48468-3 0  9996
2 48068  87.8954 322.3073 0001862 100.1111 260.0228 13.13469357252181
ONEWEB-0173             
1 48069U 21025AD  26157.69705925  .00000036  00000+0  62756-4 0  9999
2 48069  87.8950 322.3114 0001710 107.0129 253.1187 13.13469458252427
ONEWEB-0171             
1 48070U 21025AE  26157.73430404 -.00000444  00000+0 -12506-2 0  9994
2 48070  87.8979 322.3127 0001526  94.5331 265.5973 13.13473042252248
ONEWEB-0172             
1 48071U 21025AF  26157.71398278 -.00000232  00000+0 -67048-3 0  9992
2 48071  87.8951 322.3051 0001672  98.5629 261.5690 13.13470661253136
ONEWEB-0174             
1 48072U 21025AG  26157.69537556  .00000063  00000+0  13644-3 0  9997
2 48072  87.8951 322.3090 0001944  96.7603 263.3747 13.13469761252450
ONEWEB-0175             
1 48073U 21025AH  26157.49730806 -.00000097  00000+0 -30012-3 0  9996
2 48073  87.8954 322.3322 0001454  94.5026 265.6270 13.13470585252084
ONEWEB-0177             
1 48074U 21025AJ  26157.73769028  .00000157  00000+0  39581-3 0  9997
2 48074  87.8948 322.3031 0001934 100.7270 259.4077 13.13470815252306
ONEWEB-0178             
1 48075U 21025AK  26157.75644035  .00000293  00000+0  76673-3 0  9994
2 48075  87.8940 322.3133 0001539 100.0831 260.0472 13.13471365252352
ONEWEB-0108             
1 48076U 21025AL  26157.71567813 -.00000279  00000+0 -79927-3 0  9990
2 48076  87.8957 322.2980 0001983  89.9990 270.1366 13.13469527252276
ONEWEB-0169             
1 48077U 21025AM  26157.74784702  .00000319  00000+0  83724-3 0  9995
2 48077  87.8949 322.3009 0001909  96.1972 263.9374 13.13470048250939
ONEWEB-0176             
1 48210U 21031A   26157.67474106  .00000209  00000+0  52871-3 0  9994
2 48210  87.8947 291.7949 0001724 101.1405 258.9918 13.14502211246933
ONEWEB-0184             
1 48211U 21031B   26157.64777249  .00000052  00000+0  10487-3 0  9999
2 48211  87.8964 291.8006 0001136 115.2225 244.9023 13.14503094246900
ONEWEB-0179             
1 48212U 21031C   26157.63598365  .00000192  00000+0  57980-4 0  9994
2 48212  87.8980 289.5125 0218832 291.9898  65.8172 14.25516351247545
ONEWEB-0180             
1 48213U 21031D   26157.65094949  .00000131  00000+0  31987-3 0  9997
2 48213  87.8958 291.7962 0001956 113.6342 246.4993 13.14502798246832
ONEWEB-0218             
1 48214U 21031E   26157.67314825  .00000305  00000+0  78864-3 0  9996
2 48214  87.8950 291.7904 0001317 125.5244 234.6008 13.14502114246990
ONEWEB-0209             
1 48215U 21031F   26157.66204053  .00000300  00000+0  77533-3 0  9994
2 48215  87.8951 291.8109 0001988 105.8277 254.3072 13.14505145246998
