OBJECT_NAME,OBJECT_ID,EPOCH,MEAN_MOTION,ECCENTRICITY,INCLINATION,RA_OF_ASC_NODE,ARG_OF_PERICENTER,MEAN_ANOMALY,EPHEMERIS_TYPE,CLASSIFICATION_TYPE,NORAD_CAT_ID,ELEMENT_SET_NO,REV_AT_EPOCH,BSTAR,MEAN_MOTION_DOT,MEAN_MOTION_DDOT
ONEWEB-0158,2021-025N,2026-06-06T16:36:28.733472,13.13471783,.00015908,87.8951,322.3070,89.5209,270.6103,0,U,48054,999,25225,-.10438287E-3,-.25E-6,0
ONEWEB-0157,2021-025P,2026-06-06T17:13:01.501536,13.13469372,.00018508,87.8950,322.3077,107.1319,253.0013,0,U,48055,999,25219,-.62586466E-3,-.216E-5,0
ONEWEB-0162,2021-025Q,2026-06-06T16:38:41.899200,13.13469169,.00019675,87.8949,322.3134,94.2415,265.8939,0,U,48056,999,25216,.2999445E-3,.122E-5,0
ONEWEB-0155,2021-025R,2026-06-06T16:48:38.343456,13.13469083,.00016786,87.8951,322.3080,99.1800,260.9519,0,U,48057,999,25230,-.16324777E-3,-.47E-6,0
ONEWEB-0149,2021-025S,2026-06-06T17:20:20.261472,13.13470171,.00020651,87.8957,322.3073,94.1905,265.9460,0,U,48058,999,25211,-.77779761E-3,-.271E-5,0
ONEWEB-0148,2021-025T,2026-06-06T16:26:42.599328,13.13469326,.00023419,87.8948,322.3221,97.5861,262.5534,0,U,48059,999,25223,.79797755E-3,.304E-5,0
ONEWEB-0160,2021-025U,2026-06-06T16:51:04.923648,13.13470192,.00017381,87.8948,322.3146,69.9832,290.1484,0,U,48060,999,25218,-.34359662E-3,-.113E-5,0
ONEWEB-0163,2021-025V,2026-06-06T16:29:08.589408,13.13470500,.00018081,87.8955,322.3115,103.7964,256.3366,0,U,48061,999,25230,.70143739E-3,.269E-5,0
ONEWEB-0159,2021-025W,2026-06-06T18:06:39.292416,13.13470301,.00017606,87.8955,322.2916,102.4140,257.7187,0,U,48062,999,25223,.10395171E-2,.392E-5,0
ONEWEB-0164,2021-025X,2026-06-06T17:39:49.852224,13.13470650,.00017836,87.8953,322.3016,92.3938,267.7396,0,U,48063,999,25221,.42509201E-3,.168E-5,0
ONEWEB-0167,2021-025Y,2026-06-06T16:30:20.924352,13.13470952,.00013238,87.8945,322.3219,113.6042,246.5226,0,U,48064,999,25219,.59560966E-3,.23E-5,0
ONEWEB-0166,2021-025Z,2026-06-06T17:03:15.427872,13.13471177,.0001975,87.8956,322.2878,96.9944,263.1410,0,U,48065,999,25227,-.80911666E-3,-.283E-5,0
ONEWEB-0151,2021-025AA,2026-06-06T17:05:41.652096,13.13469669,.00016856,87.8946,322.3049,96.0575,264.0746,0,U,48066,999,25221,-.70323225E-3,-.244E-5,0
ONEWEB-0170,2021-025AB,2026-06-06T17:17:53.279520,13.13469120,.0001423,87.8946,322.3051,85.6596,274.4696,0,U,48067,999,25217,-.82135165E-3,-.287E-5,0
ONEWEB-0168,2021-025AC,2026-06-06T16:55:56.878752,13.13469357,.00018629,87.8954,322.3073,100.1111,260.0228,0,U,48068,999,25218,-.48467728E-3,-.164E-5,0
ONEWEB-0173,2021-025AD,2026-06-06T16:43:45.919200,13.13469458,.00017109,87.8950,322.3114,107.0129,253.1187,0,U,48069,999,25242,.62756464E-4,.36E-6,0
ONEWEB-0171,2021-025AE,2026-06-06T17:37:23.869056,13.13473042,.00015267,87.8979,322.3127,94.5331,265.5973,0,U,48070,999,25224,-.12506023E-2,-.444E-5,0
ONEWEB-0172,2021-025AF,2026-06-06T17:08:08.112192,13.13470661,.00016726,87.8951,322.3051,98.5629,261.5690,0,U,48071,999,25313,-.67047681E-3,-.232E-5,0
ONEWEB-0174,2021-025AG,2026-06-06T16:41:20.448384,13.13469761,.00019444,87.8951,322.3090,96.7603,263.3747,0,U,48072,999,25245,.13643986E-3,.63E-6,0
ONEWEB-0175,2021-025AH,2026-06-06T11:56:07.416384,13.13470585,.0001454,87.8954,322.3322,94.5026,265.6270,0,U,48073,999,25208,-.30012E-3,-.97E-6,0
ONEWEB-0177,2021-025AJ,2026-06-06T17:42:16.440192,13.13470815,.00019342,87.8948,322.3031,100.7270,259.4077,0,U,48074,999,25230,.39580516E-3,.157E-5,0
ONEWEB-0178,2021-025AK,2026-06-06T18:09:16.446240,13.13471365,.00015394,87.8940,322.3133,100.0831,260.0472,0,U,48075,999,25235,.76672742E-3,.293E-5,0
ONEWEB-0108,2021-025AL,2026-06-06T17:10:34.590432,13.13469527,.00019838,87.8957,322.2980,89.9990,270.1366,0,U,48076,999,25227,-.79927388E-3,-.279E-5,0
ONEWEB-0169,2021-025AM,2026-06-06T17:56:53.982528,13.13470048,.00019096,87.8949,322.3009,96.1972,263.9374,0,U,48077,999,25093,.83724236E-3,.319E-5,0
ONEWEB-0176,2021-031A,2026-06-06T16:11:37.627584,13.14502211,.00017247,87.8947,291.7949,101.1405,258.9918,0,U,48210,999,24693,.52870668E-3,.209E-5,0
ONEWEB-0184,2021-031B,2026-06-06T15:32:47.543136,13.14503094,.0001136,87.8964,291.8006,115.2225,244.9023,0,U,48211,999,24690,.10487E-3,.52E-6,0
ONEWEB-0179,2021-031C,2026-06-06T15:15:48.987360,14.25516351,.0218832,87.8980,289.5125,291.9898,65.8172,0,U,48212,999,24754,.5798E-4,.192E-5,0
ONEWEB-0180,2021-031D,2026-06-06T15:37:22.035936,13.14502798,.00019562,87.8958,291.7962,113.6342,246.4993,0,U,48213,999,24683,.31987273E-3,.131E-5,0
ONEWEB-0218,2021-031E,2026-06-06T16:09:20.008800,13.14502114,.00013173,87.8950,291.7904,125.5244,234.6008,0,U,48214,999,24699,.78863686E-3,.305E-5,0
ONEWEB-0209,2021-031F,2026-06-06T15:53:20.301792,13.14505145,.0001988,87.8951,291.8109,105.8277,254.3072,0,U,48215,999,24699,.77532951E-3,.3E-5,0
